HELIOS 1B               
1 25977U 99064A   26071.74048605  .00002363  00000+0  26573-3 0  9997
2 25977  98.1686 334.0732 0002416  70.9295 289.2182 14.87713347685711
TERRA                   
1 25994U 99068A   26072.01302381  .00000518  00000+0  11473-3 0  9998
2 25994  97.9587 125.3207 0002900 143.9108 332.0707 14.61018741395566
SL-16 R/B               
1 26070U 00006B   26071.48526719 -.00000168  00000+0 -61237-4 0  9998
2 26070  71.0006  91.9589 0016616 186.1025 173.9898 14.15825371348956
TITAN 4B R/B            
1 26474U 00047B   26071.94315222  .00005083  00000+0  31822-3 0  9992
2 26474  67.9903  31.3612 0038673  31.5697 328.7761 15.09598814393406
ENVISAT                 
1 27386U 02009A   26071.87154074  .00000160  00000+0  65679-4 0  9992
2 27386  98.3732  25.3932 0001320  83.3093 294.1209 14.39038276259631
IDEFIX & ARIANE 42P R/B 
1 27422U 02021B   26071.78209927  .00000332  00000+0  14279-3 0  9995
2 27422  98.5870  10.3514 0011758 173.0588 187.0760 14.31028649244461
AQUA                    
1 27424U 02022A   26071.96594350  .00001249  00000+0  25893-3 0  9997
2 27424  98.4179  39.3906 0000581  93.4732 307.8118 14.61986054269213
CZ-4B R/B               
1 27432U 02024C   26071.76983673  .00000049  00000+0  48379-4 0  9998
2 27432  98.8832 125.1609 0050340  15.5117  93.0238 14.14548225229671
MIDORI II (ADEOS-II)    
1 27597U 02056A   26071.81390759  .00000399  00000+0  17468-3 0  9990
2 27597  98.7771  30.3130 0001472  39.0122 321.1166 14.29288057210742
H-2A R/B                
1 27601U 02056E   26071.84165255  .00000328  00000+0  12924-3 0  9994
2 27601  98.3206  32.0873 0070694 151.3349 238.3866 14.33763149214566
CZ-4B R/B               
1 28059U 03049C   26071.54683965  .00000487  00000+0  12323-3 0  9994
2 28059  98.6880  66.5637 0047354 221.9948 137.7613 14.55023378187019
CZ-2C R/B               
1 28222U 04012C   26071.74279325  .00057480  00000+0  58434-3 0  9998
2 28222  97.7224 137.3253 0012995 297.1576  62.8357 15.64897873204753
SL-16 R/B               
1 28353U 04021B   26071.70978777 -.00000272  00000+0 -11680-3 0  9997
2 28353  70.9996 226.1541 0004254   4.8299 355.2863 14.14596735123262
CZ-4B R/B               
1 28415U 04035C   26071.65771192  .00008737  00000+0  30743-3 0  9990
2 28415  97.3503 105.8650 0030712 320.6231  39.2777 15.29120497180367
CZ-2C R/B               
1 28480U 04046B   26071.78115617  .00000139  00000+0  66408-4 0  9998
2 28480  98.1981 346.5727 0140048 145.3368 215.7041 14.26993278108944
ARIANE 5 R/B            
1 28499U 04049H   26071.93369661  .00000930  00000+0  10891-3 0  9991
2 28499  98.2632 240.5122 0083707 341.3820  18.4336 14.85272856146279
CZ-2D R/B               
1 28738U 05024B   26071.59537207  .00044496  00000+0  54090-3 0  9990
2 28738  97.3599  86.8489 0005369  39.5162 320.6486 15.60430671140236
